{"type": "FeatureCollection", "features": [ {"type": "Feature", "properties": {"norad_id": 66662, "name": "2025-274N", "group": "last-30-days", "lat": 5.365042870918369, "lon": -84.0669267542101, "alt_km": 591.0186865242822, "timestamp": "2025-12-15T11:38:35.906386+00:00", "meta": {"OBJECT_NAME": "2025-274N", "OBJECT_ID": "2025-274N", "EPOCH": "2025-12-14T21:08:39.316704", "MEAN_MOTION": 14.93163605, "ECCENTRICITY": 0.00135974, "INCLINATION": 97.7391, "RA_OF_ASC_NODE": 276.0705, "ARG_OF_PERICENTER": 273.6318, "MEAN_ANOMALY": 86.3346, "EPHEMERIS_TYPE": 0, "CLASSIFICATION_TYPE": "U", "NORAD_CAT_ID": 66662, "ELEMENT_SET_NO": 999, "REV_AT_EPOCH": 272, "BSTAR": 0.00026475301, "MEAN_MOTION_DOT": 2.711e-05, "MEAN_MOTION_DDOT": 0}, "tle": {"line1": "1 66662U 25274N   25348.88101061  .00002711  00000+0  26475-3 0  9990", "line2": "2 66662  97.7391 276.0705 0013597 273.6318  86.3346 14.93163605  2725"}}, "geometry": {"type": "Point", "coordinates": [-84.0669267542101, 5.365042870918369]}}, {"type": "Feature", "properties": {"norad_id": 66663, "name": "KSLV-II R/B", "group": "last-30-days", "lat": -69.83556433963966, "lon": -61.460637049691705, "alt_km": 548.1400795899135, "timestamp": "2025-12-15T11:38:35.906397+00:00", "meta": {"OBJECT_NAME": "KSLV-II R/B", "OBJECT_ID": "2025-274P", "EPOCH": "2025-12-14T16:42:44.074080", "MEAN_MOTION": 14.97324837, "ECCENTRICITY": 0.00530081, "INCLINATION": 97.7404, "RA_OF_ASC_NODE": 276.0184, "ARG_OF_PERICENTER": 312.9926, "MEAN_ANOMALY": 46.6859, "EPHEMERIS_TYPE": 0, "CLASSIFICATION_TYPE": "U", "NORAD_CAT_ID": 66663, "ELEMENT_SET_NO": 999, "REV_AT_EPOCH": 270, "BSTAR": 0.00039214597, "MEAN_MOTION_DOT": 4.62e-05, "MEAN_MOTION_DDOT": 0}, "tle": {"line1": "1 66663U 25274P   25348.69634345  .00004620  00000+0  39215-3 0  9993", "line2": "2 66663  97.7404 276.0184 0053008 312.9926  46.6859 14.97324837  2701"}}, "geometry": {"type": "Point", "coordinates": [-61.460637049691705, -69.83556433963966]}}, {"type": "Feature", "properties": {"norad_id": 66664, "name": "SOYUZ-MS 28", "group": "last-30-days", "lat": -39.52357804454854, "lon": -10.299139743668059, "alt_km": 419.9982049070768, "timestamp": "2025-12-15T11:38:35.906407+00:00", "meta": {"OBJECT_NAME": "SOYUZ-MS 28", "OBJECT_ID": "2025-275A", "EPOCH": "2025-12-14T20:42:23.988960", "MEAN_MOTION": 15.4959536, "ECCENTRICITY": 0.00032074, "INCLINATION": 51.6306, "RA_OF_ASC_NODE": 131.9662, "ARG_OF_PERICENTER": 249.8734, "MEAN_ANOMALY": 110.1909, "EPHEMERIS_TYPE": 0, "CLASSIFICATION_TYPE": "U", "NORAD_CAT_ID": 66664, "ELEMENT_SET_NO": 999, "REV_AT_EPOCH": 128, "BSTAR": 0.00013765617, "MEAN_MOTION_DOT": 7.299e-05, "MEAN_MOTION_DDOT": 0}, "tle": {"line1": "1 66664U 25275A   25348.86277765  .00007299  00000+0  13766-3 0  9991", "line2": "2 66664  51.6306 131.9662 0003207 249.8734 110.1909 15.49595360  1287"}}, "geometry": {"type": "Point", "coordinates": [-10.299139743668059, -39.52357804454854]}}, {"type": "Feature", "properties": {"norad_id": 66791, "name": "STARLINK-35867", "group": "last-30-days", "lat": -21.675896835849404, "lon": 80.52790240959348, "alt_km": 332.44567991613894, "timestamp": "2025-12-15T11:38:35.906417+00:00", "meta": {"OBJECT_NAME": "STARLINK-35867", "OBJECT_ID": "2025-278A", "EPOCH": "2025-12-14T20:00:06.000192", "MEAN_MOTION": 15.81610166, "ECCENTRICITY": 0.00016325, "INCLINATION": 42.9969, "RA_OF_ASC_NODE": 239.2653, "ARG_OF_PERICENTER": 276.8291, "MEAN_ANOMALY": 182.6249, "EPHEMERIS_TYPE": 0, "CLASSIFICATION_TYPE": "U", "NORAD_CAT_ID": 66791, "ELEMENT_SET_NO": 999, "REV_AT_EPOCH": 329, "BSTAR": -0.0068686552, "MEAN_MOTION_DOT": -0.0125483, "MEAN_MOTION_DDOT": 0}, "tle": {"line1": "1 66791U 25278A   25348.83340278 -.01254830  00000+0 -68687-2 0  9991", "line2": "2 66791  42.9969 239.2653 0001632 276.8291 182.6249 15.81610166  3298"}}, "geometry": {"type": "Point", "coordinates": [80.52790240959348, -21.675896835849404]}}, {"type": "Feature", "properties": {"norad_id": 66792, "name": "STARLINK-35990", "group": "last-30-days", "lat": -22.81846322906357, "lon": 82.11664727620932, "alt_km": 332.3657764263089, "timestamp": "2025-12-15T11:38:35.906429+00:00", "meta": {"OBJECT_NAME": "STARLINK-35990", "OBJECT_ID": "2025-278B", "EPOCH": "2025-12-14T20:00:06.000192", "MEAN_MOTION": 15.81628454, "ECCENTRICITY": 0.0001696, "INCLINATION": 42.9969, "RA_OF_ASC_NODE": 239.2607, "ARG_OF_PERICENTER": 274.0087, "MEAN_ANOMALY": 187.2753, "EPHEMERIS_TYPE": 0, "CLASSIFICATION_TYPE": "U", "NORAD_CAT_ID": 66792, "ELEMENT_SET_NO": 999, "REV_AT_EPOCH": 329, "BSTAR": -0.0068832014, "MEAN_MOTION_DOT": -0.01258173, "MEAN_MOTION_DDOT": 0}, "tle": {"line1": "1 66792U 25278B   25348.83340278 -.01258173  00000+0 -68832-2 0  9998", "line2": "2 66792  42.9969 239.2607 0001696 274.0087 187.2753 15.81628454  3291"}}, "geometry": {"type": "Point", "coordinates": [82.11664727620932, -22.81846322906357]}}, {"type": "Feature", "properties": {"norad_id": 66793, "name": "STARLINK-36051", "group": "last-30-days", "lat": -25.659824034889525, "lon": 86.29786208960877, "alt_km": 332.67346951968284, "timestamp": "2025-12-15T11:38:35.906439+00:00", "meta": {"OBJECT_NAME": "STARLINK-36051", "OBJECT_ID": "2025-278C", "EPOCH": "2025-12-14T20:00:06.000192", "MEAN_MOTION": 15.81547197, "ECCENTRICITY": 0.00016278, "INCLINATION": 42.9971, "RA_OF_ASC_NODE": 239.2481, "ARG_OF_PERICENTER": 267.7944, "MEAN_ANOMALY": 198.4843, "EPHEMERIS_TYPE": 0, "CLASSIFICATION_TYPE": "U", "NORAD_CAT_ID": 66793, "ELEMENT_SET_NO": 999, "REV_AT_EPOCH": 319, "BSTAR": -0.0070416026, "MEAN_MOTION_DOT": -0.01279296, "MEAN_MOTION_DDOT": 0}, "tle": {"line1": "1 66793U 25278C   25348.83340278 -.01279296  00000+0 -70416-2 0  9999", "line2": "2 66793  42.9971 239.2481 0001627 267.7944 198.4843 15.81547197  3197"}}, "geometry": {"type": "Point", "coordinates": [86.29786208960877, -25.659824034889525]}}, {"type": "Feature", "properties": {"norad_id": 66794, "name": "STARLINK-36062", "group": "last-30-days", "lat": -24.371048974483, "lon": 84.35675175242187, "alt_km": 332.59784246004256, "timestamp": "2025-12-15T11:38:35.906449+00:00", "meta": {"OBJECT_NAME": "STARLINK-36062", "OBJECT_ID": "2025-278D", "EPOCH": "2025-12-14T20:00:06.000192", "MEAN_MOTION": 15.81564378, "ECCENTRICITY": 0.00015914, "INCLINATION": 42.9971, "RA_OF_ASC_NODE": 239.2536, "ARG_OF_PERICENTER": 270.353, "MEAN_ANOMALY": 193.6786, "EPHEMERIS_TYPE": 0, "CLASSIFICATION_TYPE": "U", "NORAD_CAT_ID": 66794, "ELEMENT_SET_NO": 999, "REV_AT_EPOCH": 329, "BSTAR": -0.006965512, "MEAN_MOTION_DOT": -0.0126799, "MEAN_MOTION_DDOT": 0}, "tle": {"line1": "1 66794U 25278D   25348.83340278 -.01267990  00000+0 -69655-2 0  9991", "line2": "2 66794  42.9971 239.2536 0001591 270.3530 193.6786 15.81564378  3294"}}, "geometry": {"type": "Point", "coordinates": [84.35675175242187, -24.371048974483]}}, {"type": "Feature", "properties": {"norad_id": 66795, "name": "STARLINK-36047", "group": "last-30-days", "lat": -27.07332146574114, "lon": 88.52379488338445, "alt_km": 332.88018998507323, "timestamp": "2025-12-15T11:38:35.906649+00:00", "meta": {"OBJECT_NAME": "STARLINK-36047", "OBJECT_ID": "2025-278E", "EPOCH": "2025-12-14T20:00:06.000192", "MEAN_MOTION": 15.81492168, "ECCENTRICITY": 0.00016155, "INCLINATION": 42.9971, "RA_OF_ASC_NODE": 239.2412, "ARG_OF_PERICENTER": 266.6555, "MEAN_ANOMALY": 202.21, "EPHEMERIS_TYPE": 0, "CLASSIFICATION_TYPE": "U", "NORAD_CAT_ID": 66795, "ELEMENT_SET_NO": 999, "REV_AT_EPOCH": 319, "BSTAR": -0.0070826671, "MEAN_MOTION_DOT": -0.01282923, "MEAN_MOTION_DDOT": 0}, "tle": {"line1": "1 66795U 25278E   25348.83340278 -.01282923  00000+0 -70827-2 0  9998", "line2": "2 66795  42.9971 239.2412 0001615 266.6555 202.2100 15.81492168  3193"}}, "geometry": {"type": "Point", "coordinates": [88.52379488338445, -27.07332146574114]}}, {"type": "Feature", "properties": {"norad_id": 66796, "name": "STARLINK-35964", "group": "last-30-days", "lat": -39.01125846883126, "lon": 173.75188454592507, "alt_km": 306.74747136873975, "timestamp": "2025-12-15T11:38:35.906663+00:00", "meta": {"OBJECT_NAME": "STARLINK-35964", "OBJECT_ID": "2025-278F", "EPOCH": "2025-12-14T20:00:06.000192", "MEAN_MOTION": 15.92132257, "ECCENTRICITY": 0.00013754, "INCLINATION": 42.9938, "RA_OF_ASC_NODE": 238.2067, "ARG_OF_PERICENTER": 263.4662, "MEAN_ANOMALY": 252.6414, "EPHEMERIS_TYPE": 0, "CLASSIFICATION_TYPE": "U", "NORAD_CAT_ID": 66796, "ELEMENT_SET_NO": 999, "REV_AT_EPOCH": 313, "BSTAR": -0.0073372193, "MEAN_MOTION_DOT": -0.02517482, "MEAN_MOTION_DDOT": 0.0016754531}, "tle": {"line1": "1 66796U 25278F   25348.83340278 -.02517482  16755-2 -73372-2 0  9996", "line2": "2 66796  42.9938 238.2067 0001375 263.4662 252.6414 15.92132257  3132"}}, "geometry": {"type": "Point", "coordinates": [173.75188454592507, -39.01125846883126]}}, {"type": "Feature", "properties": {"norad_id": 66797, "name": "STARLINK-36099", "group": "last-30-days", "lat": -29.791172270467513, "lon": 93.15338838931731, "alt_km": 333.51718310677825, "timestamp": "2025-12-15T11:38:35.906673+00:00", "meta": {"OBJECT_NAME": "STARLINK-36099", "OBJECT_ID": "2025-278G", "EPOCH": "2025-12-14T20:00:06.000192", "MEAN_MOTION": 15.81386097, "ECCENTRICITY": 0.00015908, "INCLINATION": 42.9969, "RA_OF_ASC_NODE": 239.2283, "ARG_OF_PERICENTER": 273.7344, "MEAN_ANOMALY": 200.3265, "EPHEMERIS_TYPE": 0, "CLASSIFICATION_TYPE": "U", "NORAD_CAT_ID": 66797, "ELEMENT_SET_NO": 999, "REV_AT_EPOCH": 335, "BSTAR": -0.0072418139, "MEAN_MOTION_DOT": -0.0130248, "MEAN_MOTION_DDOT": 0}, "tle": {"line1": "1 66797U 25278G   25348.83340278 -.01302480  00000+0 -72418-2 0  9999", "line2": "2 66797  42.9969 239.2283 0001590 273.7344 200.3265 15.81386097  3357"}}, "geometry": {"type": "Point", "coordinates": [93.15338838931731, -29.791172270467513]}}]}